<?xml version="1.0" encoding="UTF-8"?>
<gpx version="1.1" creator="Route Art Studio" xmlns="http://www.topografix.com/GPX/1/1" xmlns:xsi="http://www.w3.org/2001/XMLSchema-instance" xsi:schemaLocation="http://www.topografix.com/GPX/1/1 http://www.topografix.com/GPX/1/1/gpx.xsd">
 <metadata><name>Route Art</name></metadata>
 <trk>
  <name>Route Art</name>
  <trkseg>
   <trkpt lat="40.750037" lon="-111.888144"></trkpt>
   <trkpt lat="40.750174" lon="-111.888138"></trkpt>
   <trkpt lat="40.750772" lon="-111.888141"></trkpt>
   <trkpt lat="40.751084" lon="-111.888141"></trkpt>
   <trkpt lat="40.751280" lon="-111.888143"></trkpt>
   <trkpt lat="40.751375" lon="-111.888144"></trkpt>
   <trkpt lat="40.751813" lon="-111.888148"></trkpt>
   <trkpt lat="40.751949" lon="-111.888149"></trkpt>
   <trkpt lat="40.752106" lon="-111.888148"></trkpt>
   <trkpt lat="40.752254" lon="-111.888147"></trkpt>
   <trkpt lat="40.752255" lon="-111.888016"></trkpt>
   <trkpt lat="40.752256" lon="-111.887840"></trkpt>
   <trkpt lat="40.752255" lon="-111.888016"></trkpt>
   <trkpt lat="40.752254" lon="-111.888147"></trkpt>
   <trkpt lat="40.752857" lon="-111.888143"></trkpt>
   <trkpt lat="40.753092" lon="-111.888145"></trkpt>
   <trkpt lat="40.753433" lon="-111.888148"></trkpt>
   <trkpt lat="40.753547" lon="-111.888150"></trkpt>
   <trkpt lat="40.753952" lon="-111.888151"></trkpt>
   <trkpt lat="40.753982" lon="-111.888152"></trkpt>
   <trkpt lat="40.754129" lon="-111.888148"></trkpt>
   <trkpt lat="40.754290" lon="-111.888145"></trkpt>
   <trkpt lat="40.754287" lon="-111.888073"></trkpt>
   <trkpt lat="40.754289" lon="-111.888005"></trkpt>
   <trkpt lat="40.754290" lon="-111.887400"></trkpt>
   <trkpt lat="40.754291" lon="-111.886639"></trkpt>
   <trkpt lat="40.754130" lon="-111.886637"></trkpt>
   <trkpt lat="40.754130" lon="-111.886548"></trkpt>
   <trkpt lat="40.754130" lon="-111.886487"></trkpt>
   <trkpt lat="40.754130" lon="-111.886355"></trkpt>
   <trkpt lat="40.754130" lon="-111.886249"></trkpt>
   <trkpt lat="40.754131" lon="-111.885577"></trkpt>
   <trkpt lat="40.754130" lon="-111.885386"></trkpt>
   <trkpt lat="40.754289" lon="-111.885385"></trkpt>
   <trkpt lat="40.754597" lon="-111.885382"></trkpt>
   <trkpt lat="40.755216" lon="-111.885376"></trkpt>
   <trkpt lat="40.755344" lon="-111.885375"></trkpt>
   <trkpt lat="40.755405" lon="-111.885375"></trkpt>
   <trkpt lat="40.755546" lon="-111.885374"></trkpt>
   <trkpt lat="40.755546" lon="-111.885581"></trkpt>
   <trkpt lat="40.755548" lon="-111.886134"></trkpt>
   <trkpt lat="40.755688" lon="-111.886309"></trkpt>
   <trkpt lat="40.755858" lon="-111.886310"></trkpt>
   <trkpt lat="40.756017" lon="-111.886311"></trkpt>
   <trkpt lat="40.756039" lon="-111.886255"></trkpt>
   <trkpt lat="40.756154" lon="-111.886268"></trkpt>
   <trkpt lat="40.756303" lon="-111.886278"></trkpt>
   <trkpt lat="40.756301" lon="-111.885946"></trkpt>
   <trkpt lat="40.756301" lon="-111.885740"></trkpt>
   <trkpt lat="40.756300" lon="-111.885577"></trkpt>
   <trkpt lat="40.756300" lon="-111.885367"></trkpt>
   <trkpt lat="40.756462" lon="-111.885368"></trkpt>
   <trkpt lat="40.756728" lon="-111.885368"></trkpt>
   <trkpt lat="40.756752" lon="-111.885368"></trkpt>
   <trkpt lat="40.756789" lon="-111.885368"></trkpt>
   <trkpt lat="40.757121" lon="-111.885368"></trkpt>
   <trkpt lat="40.757291" lon="-111.885368"></trkpt>
   <trkpt lat="40.757392" lon="-111.885368"></trkpt>
   <trkpt lat="40.757624" lon="-111.885368"></trkpt>
   <trkpt lat="40.757757" lon="-111.885368"></trkpt>
   <trkpt lat="40.757828" lon="-111.885368"></trkpt>
   <trkpt lat="40.757939" lon="-111.885368"></trkpt>
   <trkpt lat="40.758032" lon="-111.885368"></trkpt>
   <trkpt lat="40.758203" lon="-111.885368"></trkpt>
   <trkpt lat="40.758330" lon="-111.885368"></trkpt>
   <trkpt lat="40.758329" lon="-111.885204"></trkpt>
   <trkpt lat="40.758329" lon="-111.885168"></trkpt>
   <trkpt lat="40.758370" lon="-111.885167"></trkpt>
   <trkpt lat="40.758464" lon="-111.885166"></trkpt>
   <trkpt lat="40.758464" lon="-111.885368"></trkpt>
   <trkpt lat="40.758649" lon="-111.885368"></trkpt>
   <trkpt lat="40.758958" lon="-111.885369"></trkpt>
   <trkpt lat="40.759283" lon="-111.885369"></trkpt>
   <trkpt lat="40.759452" lon="-111.885369"></trkpt>
   <trkpt lat="40.759491" lon="-111.885369"></trkpt>
   <trkpt lat="40.759572" lon="-111.885369"></trkpt>
   <trkpt lat="40.759647" lon="-111.885369"></trkpt>
   <trkpt lat="40.759678" lon="-111.885369"></trkpt>
   <trkpt lat="40.759719" lon="-111.885369"></trkpt>
   <trkpt lat="40.759873" lon="-111.885369"></trkpt>
   <trkpt lat="40.759973" lon="-111.885369"></trkpt>
   <trkpt lat="40.760141" lon="-111.885369"></trkpt>
   <trkpt lat="40.760424" lon="-111.885369"></trkpt>
   <trkpt lat="40.760459" lon="-111.885369"></trkpt>
   <trkpt lat="40.760549" lon="-111.885369"></trkpt>
   <trkpt lat="40.760547" lon="-111.885165"></trkpt>
   <trkpt lat="40.760544" lon="-111.884645"></trkpt>
   <trkpt lat="40.760541" lon="-111.883988"></trkpt>
   <trkpt lat="40.760546" lon="-111.883758"></trkpt>
   <trkpt lat="40.760552" lon="-111.883521"></trkpt>
   <trkpt lat="40.760558" lon="-111.883373"></trkpt>
   <trkpt lat="40.760561" lon="-111.883252"></trkpt>
   <trkpt lat="40.760559" lon="-111.882767"></trkpt>
   <trkpt lat="40.760559" lon="-111.882714"></trkpt>
   <trkpt lat="40.760558" lon="-111.882589"></trkpt>
   <trkpt lat="40.760559" lon="-111.882455"></trkpt>
   <trkpt lat="40.760639" lon="-111.882445"></trkpt>
   <trkpt lat="40.760673" lon="-111.882441"></trkpt>
   <trkpt lat="40.760746" lon="-111.882432"></trkpt>
   <trkpt lat="40.760829" lon="-111.882421"></trkpt>
   <trkpt lat="40.761032" lon="-111.882420"></trkpt>
   <trkpt lat="40.761194" lon="-111.882434"></trkpt>
   <trkpt lat="40.761290" lon="-111.882437"></trkpt>
   <trkpt lat="40.761628" lon="-111.882443"></trkpt>
   <trkpt lat="40.761726" lon="-111.882445"></trkpt>
   <trkpt lat="40.761971" lon="-111.882440"></trkpt>
   <trkpt lat="40.762068" lon="-111.882441"></trkpt>
   <trkpt lat="40.762497" lon="-111.882445"></trkpt>
   <trkpt lat="40.762652" lon="-111.882445"></trkpt>
   <trkpt lat="40.762674" lon="-111.882446"></trkpt>
   <trkpt lat="40.762674" lon="-111.882537"></trkpt>
   <trkpt lat="40.762508" lon="-111.882523"></trkpt>
   <trkpt lat="40.762674" lon="-111.882537"></trkpt>
   <trkpt lat="40.762674" lon="-111.882446"></trkpt>
   <trkpt lat="40.762769" lon="-111.882444"></trkpt>
   <trkpt lat="40.762885" lon="-111.882444"></trkpt>
   <trkpt lat="40.762985" lon="-111.882444"></trkpt>
   <trkpt lat="40.763072" lon="-111.882444"></trkpt>
   <trkpt lat="40.763310" lon="-111.882444"></trkpt>
   <trkpt lat="40.763420" lon="-111.882444"></trkpt>
   <trkpt lat="40.763650" lon="-111.882445"></trkpt>
   <trkpt lat="40.763859" lon="-111.882445"></trkpt>
   <trkpt lat="40.764679" lon="-111.882446"></trkpt>
   <trkpt lat="40.764823" lon="-111.882446"></trkpt>
   <trkpt lat="40.764850" lon="-111.882446"></trkpt>
   <trkpt lat="40.765012" lon="-111.882448"></trkpt>
   <trkpt lat="40.765012" lon="-111.882308"></trkpt>
   <trkpt lat="40.765012" lon="-111.882269"></trkpt>
   <trkpt lat="40.765011" lon="-111.882000"></trkpt>
   <trkpt lat="40.765011" lon="-111.881826"></trkpt>
   <trkpt lat="40.765011" lon="-111.881714"></trkpt>
   <trkpt lat="40.765011" lon="-111.881672"></trkpt>
   <trkpt lat="40.765011" lon="-111.881480"></trkpt>
   <trkpt lat="40.764850" lon="-111.881494"></trkpt>
   <trkpt lat="40.764690" lon="-111.881492"></trkpt>
   <trkpt lat="40.764850" lon="-111.881494"></trkpt>
   <trkpt lat="40.765011" lon="-111.881480"></trkpt>
   <trkpt lat="40.765011" lon="-111.881270"></trkpt>
   <trkpt lat="40.765011" lon="-111.881049"></trkpt>
   <trkpt lat="40.765010" lon="-111.880749"></trkpt>
   <trkpt lat="40.765010" lon="-111.880552"></trkpt>
   <trkpt lat="40.765010" lon="-111.880482"></trkpt>
   <trkpt lat="40.765010" lon="-111.880451"></trkpt>
   <trkpt lat="40.765010" lon="-111.880186"></trkpt>
   <trkpt lat="40.765009" lon="-111.880020"></trkpt>
   <trkpt lat="40.765009" lon="-111.879854"></trkpt>
   <trkpt lat="40.765009" lon="-111.879644"></trkpt>
   <trkpt lat="40.765164" lon="-111.879644"></trkpt>
   <trkpt lat="40.765239" lon="-111.879644"></trkpt>
   <trkpt lat="40.765476" lon="-111.879644"></trkpt>
   <trkpt lat="40.765535" lon="-111.879644"></trkpt>
   <trkpt lat="40.765660" lon="-111.879645"></trkpt>
   <trkpt lat="40.765701" lon="-111.879645"></trkpt>
   <trkpt lat="40.765853" lon="-111.879645"></trkpt>
   <trkpt lat="40.765858" lon="-111.879444"></trkpt>
   <trkpt lat="40.765853" lon="-111.879645"></trkpt>
   <trkpt lat="40.765701" lon="-111.879645"></trkpt>
   <trkpt lat="40.765660" lon="-111.879645"></trkpt>
   <trkpt lat="40.765535" lon="-111.879644"></trkpt>
   <trkpt lat="40.765476" lon="-111.879644"></trkpt>
   <trkpt lat="40.765239" lon="-111.879644"></trkpt>
   <trkpt lat="40.765164" lon="-111.879644"></trkpt>
   <trkpt lat="40.765009" lon="-111.879644"></trkpt>
   <trkpt lat="40.765009" lon="-111.879447"></trkpt>
   <trkpt lat="40.765009" lon="-111.879194"></trkpt>
   <trkpt lat="40.765009" lon="-111.879068"></trkpt>
   <trkpt lat="40.765009" lon="-111.878943"></trkpt>
   <trkpt lat="40.765008" lon="-111.878752"></trkpt>
   <trkpt lat="40.765008" lon="-111.878648"></trkpt>
   <trkpt lat="40.765008" lon="-111.878202"></trkpt>
   <trkpt lat="40.765008" lon="-111.877887"></trkpt>
   <trkpt lat="40.765008" lon="-111.877812"></trkpt>
   <trkpt lat="40.765007" lon="-111.877662"></trkpt>
   <trkpt lat="40.765007" lon="-111.877511"></trkpt>
   <trkpt lat="40.765007" lon="-111.877289"></trkpt>
   <trkpt lat="40.765007" lon="-111.877059"></trkpt>
   <trkpt lat="40.765007" lon="-111.876996"></trkpt>
   <trkpt lat="40.765006" lon="-111.876793"></trkpt>
   <trkpt lat="40.765159" lon="-111.876794"></trkpt>
   <trkpt lat="40.765287" lon="-111.876794"></trkpt>
   <trkpt lat="40.765419" lon="-111.876795"></trkpt>
   <trkpt lat="40.765543" lon="-111.876795"></trkpt>
   <trkpt lat="40.765694" lon="-111.876796"></trkpt>
   <trkpt lat="40.766117" lon="-111.876797"></trkpt>
   <trkpt lat="40.765694" lon="-111.876796"></trkpt>
   <trkpt lat="40.765543" lon="-111.876795"></trkpt>
   <trkpt lat="40.765419" lon="-111.876795"></trkpt>
   <trkpt lat="40.765287" lon="-111.876794"></trkpt>
   <trkpt lat="40.765159" lon="-111.876794"></trkpt>
   <trkpt lat="40.765006" lon="-111.876793"></trkpt>
   <trkpt lat="40.765006" lon="-111.876582"></trkpt>
   <trkpt lat="40.765006" lon="-111.876183"></trkpt>
   <trkpt lat="40.765005" lon="-111.875944"></trkpt>
   <trkpt lat="40.765005" lon="-111.875899"></trkpt>
   <trkpt lat="40.765005" lon="-111.875834"></trkpt>
   <trkpt lat="40.765005" lon="-111.875746"></trkpt>
   <trkpt lat="40.764852" lon="-111.875748"></trkpt>
   <trkpt lat="40.764429" lon="-111.875761"></trkpt>
   <trkpt lat="40.764399" lon="-111.875808"></trkpt>
   <trkpt lat="40.764357" lon="-111.875852"></trkpt>
   <trkpt lat="40.764281" lon="-111.875865"></trkpt>
   <trkpt lat="40.764014" lon="-111.875863"></trkpt>
   <trkpt lat="40.763963" lon="-111.875837"></trkpt>
   <trkpt lat="40.763935" lon="-111.875785"></trkpt>
   <trkpt lat="40.763935" lon="-111.875728"></trkpt>
   <trkpt lat="40.763940" lon="-111.875711"></trkpt>
   <trkpt lat="40.763954" lon="-111.875673"></trkpt>
   <trkpt lat="40.764017" lon="-111.875657"></trkpt>
   <trkpt lat="40.763954" lon="-111.875673"></trkpt>
   <trkpt lat="40.763940" lon="-111.875711"></trkpt>
   <trkpt lat="40.763857" lon="-111.875661"></trkpt>
   <trkpt lat="40.763818" lon="-111.875627"></trkpt>
   <trkpt lat="40.763801" lon="-111.875567"></trkpt>
   <trkpt lat="40.763806" lon="-111.875051"></trkpt>
   <trkpt lat="40.763356" lon="-111.875052"></trkpt>
   <trkpt lat="40.762988" lon="-111.875053"></trkpt>
   <trkpt lat="40.762834" lon="-111.875054"></trkpt>
   <trkpt lat="40.762833" lon="-111.874812"></trkpt>
   <trkpt lat="40.762833" lon="-111.874607"></trkpt>
   <trkpt lat="40.762834" lon="-111.874448"></trkpt>
   <trkpt lat="40.762833" lon="-111.874173"></trkpt>
   <trkpt lat="40.762833" lon="-111.874130"></trkpt>
   <trkpt lat="40.762833" lon="-111.873994"></trkpt>
   <trkpt lat="40.762677" lon="-111.873999"></trkpt>
   <trkpt lat="40.762162" lon="-111.873998"></trkpt>
   <trkpt lat="40.762162" lon="-111.874130"></trkpt>
   <trkpt lat="40.762162" lon="-111.874806"></trkpt>
   <trkpt lat="40.762162" lon="-111.874996"></trkpt>
   <trkpt lat="40.762162" lon="-111.875311"></trkpt>
   <trkpt lat="40.761723" lon="-111.875303"></trkpt>
   <trkpt lat="40.761726" lon="-111.875115"></trkpt>
   <trkpt lat="40.762059" lon="-111.875106"></trkpt>
   <trkpt lat="40.761726" lon="-111.875115"></trkpt>
   <trkpt lat="40.761723" lon="-111.875303"></trkpt>
   <trkpt lat="40.761621" lon="-111.875301"></trkpt>
   <trkpt lat="40.761517" lon="-111.875311"></trkpt>
   <trkpt lat="40.761433" lon="-111.875258"></trkpt>
   <trkpt lat="40.761427" lon="-111.874127"></trkpt>
   <trkpt lat="40.761427" lon="-111.873996"></trkpt>
   <trkpt lat="40.761367" lon="-111.873996"></trkpt>
   <trkpt lat="40.761184" lon="-111.873995"></trkpt>
   <trkpt lat="40.761118" lon="-111.873995"></trkpt>
   <trkpt lat="40.760861" lon="-111.873999"></trkpt>
   <trkpt lat="40.760828" lon="-111.873999"></trkpt>
   <trkpt lat="40.760758" lon="-111.873999"></trkpt>
   <trkpt lat="40.760702" lon="-111.874000"></trkpt>
   <trkpt lat="40.760645" lon="-111.874001"></trkpt>
   <trkpt lat="40.760561" lon="-111.874001"></trkpt>
   <trkpt lat="40.760499" lon="-111.874001"></trkpt>
   <trkpt lat="40.760034" lon="-111.874002"></trkpt>
   <trkpt lat="40.759551" lon="-111.874003"></trkpt>
   <trkpt lat="40.759551" lon="-111.874132"></trkpt>
   <trkpt lat="40.759551" lon="-111.874150"></trkpt>
   <trkpt lat="40.759551" lon="-111.874279"></trkpt>
   <trkpt lat="40.759723" lon="-111.874279"></trkpt>
   <trkpt lat="40.759551" lon="-111.874279"></trkpt>
   <trkpt lat="40.759551" lon="-111.874150"></trkpt>
   <trkpt lat="40.759551" lon="-111.874132"></trkpt>
   <trkpt lat="40.759551" lon="-111.874003"></trkpt>
   <trkpt lat="40.759098" lon="-111.874004"></trkpt>
   <trkpt lat="40.759002" lon="-111.874004"></trkpt>
   <trkpt lat="40.758945" lon="-111.874004"></trkpt>
   <trkpt lat="40.758671" lon="-111.873988"></trkpt>
   <trkpt lat="40.758644" lon="-111.873989"></trkpt>
   <trkpt lat="40.758485" lon="-111.873988"></trkpt>
   <trkpt lat="40.758332" lon="-111.873987"></trkpt>
   <trkpt lat="40.757597" lon="-111.873993"></trkpt>
   <trkpt lat="40.757597" lon="-111.873846"></trkpt>
   <trkpt lat="40.757851" lon="-111.873844"></trkpt>
   <trkpt lat="40.757850" lon="-111.873771"></trkpt>
   <trkpt lat="40.757814" lon="-111.873772"></trkpt>
   <trkpt lat="40.757770" lon="-111.873772"></trkpt>
   <trkpt lat="40.757626" lon="-111.873773"></trkpt>
   <trkpt lat="40.757770" lon="-111.873772"></trkpt>
   <trkpt lat="40.757814" lon="-111.873772"></trkpt>
   <trkpt lat="40.757850" lon="-111.873771"></trkpt>
   <trkpt lat="40.757851" lon="-111.873844"></trkpt>
   <trkpt lat="40.757597" lon="-111.873846"></trkpt>
   <trkpt lat="40.757597" lon="-111.873993"></trkpt>
   <trkpt lat="40.757092" lon="-111.873992"></trkpt>
   <trkpt lat="40.756504" lon="-111.873998"></trkpt>
   <trkpt lat="40.756468" lon="-111.873998"></trkpt>
   <trkpt lat="40.756298" lon="-111.873999"></trkpt>
   <trkpt lat="40.756157" lon="-111.874000"></trkpt>
   <trkpt lat="40.755533" lon="-111.874002"></trkpt>
   <trkpt lat="40.755534" lon="-111.873844"></trkpt>
   <trkpt lat="40.755535" lon="-111.873719"></trkpt>
   <trkpt lat="40.755540" lon="-111.872973"></trkpt>
   <trkpt lat="40.755535" lon="-111.873719"></trkpt>
   <trkpt lat="40.755534" lon="-111.873844"></trkpt>
   <trkpt lat="40.755533" lon="-111.874002"></trkpt>
   <trkpt lat="40.754915" lon="-111.873993"></trkpt>
   <trkpt lat="40.754316" lon="-111.873993"></trkpt>
   <trkpt lat="40.754293" lon="-111.873993"></trkpt>
   <trkpt lat="40.754138" lon="-111.873993"></trkpt>
   <trkpt lat="40.754138" lon="-111.873835"></trkpt>
   <trkpt lat="40.754138" lon="-111.873722"></trkpt>
   <trkpt lat="40.754138" lon="-111.873674"></trkpt>
   <trkpt lat="40.754140" lon="-111.872493"></trkpt>
   <trkpt lat="40.753984" lon="-111.872492"></trkpt>
   <trkpt lat="40.753276" lon="-111.872491"></trkpt>
   <trkpt lat="40.753053" lon="-111.872464"></trkpt>
   <trkpt lat="40.753060" lon="-111.872495"></trkpt>
   <trkpt lat="40.753079" lon="-111.872516"></trkpt>
   <trkpt lat="40.753256" lon="-111.872569"></trkpt>
   <trkpt lat="40.753273" lon="-111.872570"></trkpt>
   <trkpt lat="40.753256" lon="-111.872569"></trkpt>
   <trkpt lat="40.753079" lon="-111.872516"></trkpt>
   <trkpt lat="40.753060" lon="-111.872495"></trkpt>
   <trkpt lat="40.753053" lon="-111.872464"></trkpt>
   <trkpt lat="40.752578" lon="-111.872459"></trkpt>
   <trkpt lat="40.752368" lon="-111.872457"></trkpt>
   <trkpt lat="40.752120" lon="-111.872458"></trkpt>
   <trkpt lat="40.751965" lon="-111.872475"></trkpt>
   <trkpt lat="40.751812" lon="-111.872496"></trkpt>
   <trkpt lat="40.751812" lon="-111.872402"></trkpt>
   <trkpt lat="40.751807" lon="-111.872393"></trkpt>
   <trkpt lat="40.750944" lon="-111.872394"></trkpt>
   <trkpt lat="40.749950" lon="-111.872394"></trkpt>
   <trkpt lat="40.749950" lon="-111.872430"></trkpt>
   <trkpt lat="40.749950" lon="-111.872495"></trkpt>
   <trkpt lat="40.749804" lon="-111.872495"></trkpt>
   <trkpt lat="40.749802" lon="-111.871973"></trkpt>
   <trkpt lat="40.749802" lon="-111.871865"></trkpt>
   <trkpt lat="40.749801" lon="-111.871610"></trkpt>
   <trkpt lat="40.749802" lon="-111.871401"></trkpt>
   <trkpt lat="40.749803" lon="-111.871340"></trkpt>
   <trkpt lat="40.749802" lon="-111.871197"></trkpt>
   <trkpt lat="40.749664" lon="-111.871217"></trkpt>
   <trkpt lat="40.749634" lon="-111.871221"></trkpt>
   <trkpt lat="40.749281" lon="-111.871262"></trkpt>
   <trkpt lat="40.746300" lon="-111.871260"></trkpt>
   <trkpt lat="40.746164" lon="-111.871193"></trkpt>
   <trkpt lat="40.746074" lon="-111.871182"></trkpt>
   <trkpt lat="40.745809" lon="-111.871178"></trkpt>
   <trkpt lat="40.745764" lon="-111.871163"></trkpt>
   <trkpt lat="40.745734" lon="-111.871137"></trkpt>
   <trkpt lat="40.745715" lon="-111.871089"></trkpt>
   <trkpt lat="40.746696" lon="-111.871089"></trkpt>
   <trkpt lat="40.746696" lon="-111.870966"></trkpt>
   <trkpt lat="40.747048" lon="-111.870959"></trkpt>
   <trkpt lat="40.746696" lon="-111.870966"></trkpt>
   <trkpt lat="40.745754" lon="-111.870969"></trkpt>
   <trkpt lat="40.745750" lon="-111.870969"></trkpt>
   <trkpt lat="40.745716" lon="-111.870969"></trkpt>
   <trkpt lat="40.745717" lon="-111.870354"></trkpt>
   <trkpt lat="40.745347" lon="-111.870352"></trkpt>
   <trkpt lat="40.744867" lon="-111.870335"></trkpt>
   <trkpt lat="40.744328" lon="-111.870347"></trkpt>
   <trkpt lat="40.744293" lon="-111.870347"></trkpt>
   <trkpt lat="40.744294" lon="-111.869742"></trkpt>
   <trkpt lat="40.744294" lon="-111.869629"></trkpt>
   <trkpt lat="40.744329" lon="-111.869629"></trkpt>
   <trkpt lat="40.745719" lon="-111.869630"></trkpt>
   <trkpt lat="40.745719" lon="-111.869738"></trkpt>
   <trkpt lat="40.745717" lon="-111.870354"></trkpt>
   <trkpt lat="40.745753" lon="-111.870354"></trkpt>
   <trkpt lat="40.746277" lon="-111.870346"></trkpt>
   <trkpt lat="40.748036" lon="-111.870342"></trkpt>
   <trkpt lat="40.748035" lon="-111.870964"></trkpt>
   <trkpt lat="40.748052" lon="-111.870964"></trkpt>
   <trkpt lat="40.748064" lon="-111.870964"></trkpt>
   <trkpt lat="40.748509" lon="-111.870969"></trkpt>
   <trkpt lat="40.749014" lon="-111.870966"></trkpt>
   <trkpt lat="40.749222" lon="-111.870958"></trkpt>
   <trkpt lat="40.749219" lon="-111.871080"></trkpt>
   <trkpt lat="40.749618" lon="-111.871031"></trkpt>
   <trkpt lat="40.749635" lon="-111.871028"></trkpt>
   <trkpt lat="40.749665" lon="-111.871025"></trkpt>
   <trkpt lat="40.749800" lon="-111.871005"></trkpt>
   <trkpt lat="40.749802" lon="-111.871197"></trkpt>
   <trkpt lat="40.749803" lon="-111.871340"></trkpt>
   <trkpt lat="40.749802" lon="-111.871401"></trkpt>
   <trkpt lat="40.749801" lon="-111.871610"></trkpt>
   <trkpt lat="40.749802" lon="-111.871865"></trkpt>
   <trkpt lat="40.749802" lon="-111.871973"></trkpt>
   <trkpt lat="40.749804" lon="-111.872495"></trkpt>
   <trkpt lat="40.749950" lon="-111.872495"></trkpt>
   <trkpt lat="40.749949" lon="-111.872566"></trkpt>
   <trkpt lat="40.749949" lon="-111.872603"></trkpt>
   <trkpt lat="40.750703" lon="-111.872603"></trkpt>
   <trkpt lat="40.749949" lon="-111.872603"></trkpt>
   <trkpt lat="40.749949" lon="-111.872566"></trkpt>
   <trkpt lat="40.749950" lon="-111.872495"></trkpt>
   <trkpt lat="40.749804" lon="-111.872495"></trkpt>
   <trkpt lat="40.749804" lon="-111.873119"></trkpt>
   <trkpt lat="40.749803" lon="-111.873452"></trkpt>
   <trkpt lat="40.749804" lon="-111.873687"></trkpt>
   <trkpt lat="40.749804" lon="-111.873725"></trkpt>
   <trkpt lat="40.749804" lon="-111.873770"></trkpt>
   <trkpt lat="40.749804" lon="-111.873856"></trkpt>
   <trkpt lat="40.749804" lon="-111.873978"></trkpt>
   <trkpt lat="40.749804" lon="-111.874081"></trkpt>
   <trkpt lat="40.749804" lon="-111.874126"></trkpt>
   <trkpt lat="40.749804" lon="-111.874159"></trkpt>
   <trkpt lat="40.749805" lon="-111.874224"></trkpt>
   <trkpt lat="40.749804" lon="-111.874693"></trkpt>
   <trkpt lat="40.749805" lon="-111.875342"></trkpt>
   <trkpt lat="40.749802" lon="-111.876021"></trkpt>
   <trkpt lat="40.749800" lon="-111.876579"></trkpt>
   <trkpt lat="40.749800" lon="-111.876775"></trkpt>
   <trkpt lat="40.749799" lon="-111.876990"></trkpt>
   <trkpt lat="40.749799" lon="-111.877292"></trkpt>
   <trkpt lat="40.749798" lon="-111.877758"></trkpt>
   <trkpt lat="40.749799" lon="-111.877924"></trkpt>
   <trkpt lat="40.749704" lon="-111.877921"></trkpt>
   <trkpt lat="40.749705" lon="-111.877981"></trkpt>
   <trkpt lat="40.749686" lon="-111.878078"></trkpt>
   <trkpt lat="40.749686" lon="-111.878223"></trkpt>
   <trkpt lat="40.749686" lon="-111.878263"></trkpt>
   <trkpt lat="40.749686" lon="-111.878324"></trkpt>
   <trkpt lat="40.749686" lon="-111.878427"></trkpt>
   <trkpt lat="40.749675" lon="-111.878527"></trkpt>
   <trkpt lat="40.749674" lon="-111.878751"></trkpt>
   <trkpt lat="40.749673" lon="-111.879204"></trkpt>
   <trkpt lat="40.749695" lon="-111.879341"></trkpt>
   <trkpt lat="40.749700" lon="-111.879437"></trkpt>
   <trkpt lat="40.749700" lon="-111.879552"></trkpt>
   <trkpt lat="40.749699" lon="-111.879635"></trkpt>
   <trkpt lat="40.749700" lon="-111.879728"></trkpt>
   <trkpt lat="40.749700" lon="-111.879854"></trkpt>
   <trkpt lat="40.749701" lon="-111.879978"></trkpt>
   <trkpt lat="40.749708" lon="-111.880058"></trkpt>
   <trkpt lat="40.749707" lon="-111.880241"></trkpt>
   <trkpt lat="40.749707" lon="-111.880298"></trkpt>
   <trkpt lat="40.749707" lon="-111.880489"></trkpt>
   <trkpt lat="40.749707" lon="-111.880645"></trkpt>
   <trkpt lat="40.749706" lon="-111.880795"></trkpt>
   <trkpt lat="40.749706" lon="-111.881082"></trkpt>
   <trkpt lat="40.749706" lon="-111.881233"></trkpt>
   <trkpt lat="40.749706" lon="-111.881388"></trkpt>
   <trkpt lat="40.749705" lon="-111.881745"></trkpt>
   <trkpt lat="40.749703" lon="-111.882115"></trkpt>
   <trkpt lat="40.749698" lon="-111.882158"></trkpt>
   <trkpt lat="40.749698" lon="-111.882296"></trkpt>
   <trkpt lat="40.749698" lon="-111.882352"></trkpt>
   <trkpt lat="40.749698" lon="-111.882418"></trkpt>
   <trkpt lat="40.749696" lon="-111.882506"></trkpt>
   <trkpt lat="40.749697" lon="-111.882587"></trkpt>
   <trkpt lat="40.749697" lon="-111.882623"></trkpt>
   <trkpt lat="40.749698" lon="-111.882705"></trkpt>
   <trkpt lat="40.749675" lon="-111.882802"></trkpt>
   <trkpt lat="40.749672" lon="-111.883239"></trkpt>
   <trkpt lat="40.749700" lon="-111.883404"></trkpt>
   <trkpt lat="40.749700" lon="-111.884993"></trkpt>
   <trkpt lat="40.749700" lon="-111.885165"></trkpt>
   <trkpt lat="40.749699" lon="-111.885304"></trkpt>
   <trkpt lat="40.749700" lon="-111.885372"></trkpt>
   <trkpt lat="40.749700" lon="-111.885458"></trkpt>
   <trkpt lat="40.749699" lon="-111.885572"></trkpt>
   <trkpt lat="40.749698" lon="-111.886052"></trkpt>
   <trkpt lat="40.749696" lon="-111.886293"></trkpt>
   <trkpt lat="40.749632" lon="-111.886295"></trkpt>
   <trkpt lat="40.749696" lon="-111.886293"></trkpt>
   <trkpt lat="40.749696" lon="-111.886540"></trkpt>
   <trkpt lat="40.749696" lon="-111.886608"></trkpt>
   <trkpt lat="40.749697" lon="-111.886640"></trkpt>
   <trkpt lat="40.749699" lon="-111.886725"></trkpt>
   <trkpt lat="40.749700" lon="-111.886826"></trkpt>
   <trkpt lat="40.749699" lon="-111.886867"></trkpt>
   <trkpt lat="40.749700" lon="-111.886923"></trkpt>
   <trkpt lat="40.749688" lon="-111.887002"></trkpt>
   <trkpt lat="40.749688" lon="-111.887048"></trkpt>
   <trkpt lat="40.749687" lon="-111.887227"></trkpt>
   <trkpt lat="40.749687" lon="-111.887443"></trkpt>
   <trkpt lat="40.749812" lon="-111.887440"></trkpt>
   <trkpt lat="40.749812" lon="-111.887593"></trkpt>
   <trkpt lat="40.749812" lon="-111.887885"></trkpt>
   <trkpt lat="40.749812" lon="-111.887993"></trkpt>
   <trkpt lat="40.749812" lon="-111.888145"></trkpt>
   <trkpt lat="40.749812" lon="-111.888319"></trkpt>
   <trkpt lat="40.749812" lon="-111.888459"></trkpt>
   <trkpt lat="40.749812" lon="-111.888871"></trkpt>
   <trkpt lat="40.749812" lon="-111.889099"></trkpt>
   <trkpt lat="40.749812" lon="-111.889241"></trkpt>
   <trkpt lat="40.749812" lon="-111.889669"></trkpt>
   <trkpt lat="40.749693" lon="-111.889667"></trkpt>
   <trkpt lat="40.749694" lon="-111.890326"></trkpt>
   <trkpt lat="40.749694" lon="-111.890709"></trkpt>
   <trkpt lat="40.749694" lon="-111.890889"></trkpt>
   <trkpt lat="40.749696" lon="-111.890948"></trkpt>
   <trkpt lat="40.749697" lon="-111.891081"></trkpt>
   <trkpt lat="40.749673" lon="-111.891084"></trkpt>
   <trkpt lat="40.749380" lon="-111.891082"></trkpt>
   <trkpt lat="40.749245" lon="-111.891083"></trkpt>
   <trkpt lat="40.748921" lon="-111.891083"></trkpt>
   <trkpt lat="40.748455" lon="-111.891084"></trkpt>
   <trkpt lat="40.748309" lon="-111.891084"></trkpt>
   <trkpt lat="40.748309" lon="-111.890880"></trkpt>
   <trkpt lat="40.748308" lon="-111.890716"></trkpt>
   <trkpt lat="40.748309" lon="-111.890880"></trkpt>
   <trkpt lat="40.748309" lon="-111.891084"></trkpt>
   <trkpt lat="40.748009" lon="-111.891084"></trkpt>
   <trkpt lat="40.747925" lon="-111.891084"></trkpt>
   <trkpt lat="40.747578" lon="-111.891084"></trkpt>
   <trkpt lat="40.747326" lon="-111.891084"></trkpt>
   <trkpt lat="40.747116" lon="-111.891084"></trkpt>
   <trkpt lat="40.746627" lon="-111.891084"></trkpt>
   <trkpt lat="40.746520" lon="-111.891084"></trkpt>
   <trkpt lat="40.746439" lon="-111.891084"></trkpt>
   <trkpt lat="40.746472" lon="-111.891214"></trkpt>
   <trkpt lat="40.746473" lon="-111.891297"></trkpt>
   <trkpt lat="40.746473" lon="-111.891402"></trkpt>
   <trkpt lat="40.746391" lon="-111.891403"></trkpt>
   <trkpt lat="40.746252" lon="-111.891402"></trkpt>
   <trkpt lat="40.746083" lon="-111.891404"></trkpt>
   <trkpt lat="40.746252" lon="-111.891402"></trkpt>
   <trkpt lat="40.746391" lon="-111.891403"></trkpt>
   <trkpt lat="40.746392" lon="-111.891297"></trkpt>
   <trkpt lat="40.746394" lon="-111.891216"></trkpt>
   <trkpt lat="40.746439" lon="-111.891084"></trkpt>
   <trkpt lat="40.746063" lon="-111.891084"></trkpt>
   <trkpt lat="40.745557" lon="-111.891084"></trkpt>
   <trkpt lat="40.745289" lon="-111.891084"></trkpt>
   <trkpt lat="40.744855" lon="-111.891084"></trkpt>
   <trkpt lat="40.744778" lon="-111.891084"></trkpt>
   <trkpt lat="40.744654" lon="-111.891084"></trkpt>
   <trkpt lat="40.744303" lon="-111.891085"></trkpt>
   <trkpt lat="40.743988" lon="-111.891085"></trkpt>
   <trkpt lat="40.743640" lon="-111.891085"></trkpt>
   <trkpt lat="40.743350" lon="-111.891085"></trkpt>
   <trkpt lat="40.743276" lon="-111.891085"></trkpt>
   <trkpt lat="40.743269" lon="-111.891294"></trkpt>
   <trkpt lat="40.743268" lon="-111.891902"></trkpt>
   <trkpt lat="40.743268" lon="-111.892480"></trkpt>
   <trkpt lat="40.743354" lon="-111.892480"></trkpt>
   <trkpt lat="40.743923" lon="-111.892473"></trkpt>
   <trkpt lat="40.743354" lon="-111.892480"></trkpt>
   <trkpt lat="40.743268" lon="-111.892480"></trkpt>
   <trkpt lat="40.743268" lon="-111.892532"></trkpt>
   <trkpt lat="40.743267" lon="-111.893231"></trkpt>
   <trkpt lat="40.743267" lon="-111.893270"></trkpt>
   <trkpt lat="40.743267" lon="-111.893842"></trkpt>
   <trkpt lat="40.743267" lon="-111.893956"></trkpt>
   <trkpt lat="40.742854" lon="-111.893954"></trkpt>
   <trkpt lat="40.742775" lon="-111.893954"></trkpt>
   <trkpt lat="40.742777" lon="-111.894056"></trkpt>
   <trkpt lat="40.742771" lon="-111.894066"></trkpt>
   <trkpt lat="40.742750" lon="-111.894060"></trkpt>
   <trkpt lat="40.742438" lon="-111.894060"></trkpt>
   <trkpt lat="40.742438" lon="-111.894715"></trkpt>
   <trkpt lat="40.742438" lon="-111.894060"></trkpt>
   <trkpt lat="40.741954" lon="-111.894066"></trkpt>
   <trkpt lat="40.741951" lon="-111.894260"></trkpt>
   <trkpt lat="40.741947" lon="-111.894461"></trkpt>
   <trkpt lat="40.741768" lon="-111.894468"></trkpt>
   <trkpt lat="40.741679" lon="-111.894472"></trkpt>
   <trkpt lat="40.741588" lon="-111.894472"></trkpt>
   <trkpt lat="40.741588" lon="-111.894658"></trkpt>
   <trkpt lat="40.741586" lon="-111.895112"></trkpt>
   <trkpt lat="40.741585" lon="-111.895312"></trkpt>
   <trkpt lat="40.741586" lon="-111.895393"></trkpt>
   <trkpt lat="40.741587" lon="-111.896109"></trkpt>
   <trkpt lat="40.741590" lon="-111.896433"></trkpt>
   <trkpt lat="40.741638" lon="-111.896507"></trkpt>
   <trkpt lat="40.741639" lon="-111.896626"></trkpt>
   <trkpt lat="40.741639" lon="-111.896680"></trkpt>
   <trkpt lat="40.741639" lon="-111.896761"></trkpt>
   <trkpt lat="40.741640" lon="-111.896854"></trkpt>
   <trkpt lat="40.741640" lon="-111.896920"></trkpt>
   <trkpt lat="40.741643" lon="-111.897421"></trkpt>
  </trkseg>
 </trk>
</gpx>
